STARLINK-36726          
1 67925U 26036X   26067.93853814 -.00192425  00000+0 -93903-3 0  9999
2 67925  42.9988 254.1867 0003330 245.4626 114.5898 15.81838832  3558
STARLINK-36758          
1 67926U 26036Y   26068.50597220  .00400083  00000+0  18098-2 0  9991
2 67926  42.9989 250.6982 0001937 246.8053 113.2615 15.82089976  3640
STARLINK-36728          
1 67927U 26036Z   26068.56760902  .00463966  00000+0  20954-2 0  9990
2 67927  42.9991 250.2991 0002783 276.6932  83.3623 15.81960083  3650
STARLINK-36771          
1 67928U 26036AA  26068.56835528  .00321284  00000+0  14649-2 0  9998
2 67928  42.9991 250.3044 0002087 244.5876 115.4780 15.82124563  3656
STARLINK-36809          
1 67929U 26036AB  26068.56686160  .00473270  00000+0  21346-2 0  9990
2 67929  42.9991 250.2923 0003235 305.0690  54.9878 15.81964343  3657
STARLINK-36865          
1 67930U 26036AC  26068.62849715  .00125625  00000+0  58930-3 0  9994
2 67930  42.9988 249.8925 0001435 250.8436 109.2281 15.82060075  3669
STARLINK-36781          
1 67931U 26036AD  26068.62923944  .00195125  00000+0  90531-3 0  9997
2 67931  42.9992 249.8998 0001289 193.2563 166.8276 15.82090420  3663
STARLINK-36301          
1 67932U 26037A   26068.58335648  .00037200  00000+0  17849-3 0  9992
2 67932  43.0005 199.2319 0001550 279.0880 106.1136 15.82009053  3093
STARLINK-36852          
1 67933U 26037B   26068.58335648  .00034915  00000+0  16786-3 0  9992
2 67933  42.9986 199.2215 0001479 259.3336 130.1689 15.81992690  3189
STARLINK-36861          
1 67934U 26037C   26068.58335648  .00017734  00000+0  86533-4 0  9991
2 67934  42.9985 199.2109 0001505 251.5106 142.2367 15.82026891  3189
STARLINK-36860          
1 67935U 26037D   26068.58335648 -.00027896  00000+0 -13020-3 0  9994
2 67935  42.9983 199.2002 0001367 281.8171 116.2097 15.82045099  3186
STARLINK-36848          
1 67936U 26037E   26068.58335648 -.00004583  00000+0 -19243-4 0  9997
2 67936  42.9984 199.1781 0001647 264.6141 141.9786 15.82015144  3186
