CCSDS_OMM_VERS = 2.0
CREATION_DATE  = 
ORIGINATOR     = 

OBJECT_NAME    = STARLINK-36726
OBJECT_ID      = 2026-036X
CENTER_NAME    = EARTH
REF_FRAME      = TEME
TIME_SYSTEM    = UTC
MEAN_ELEMENT_THEORY = SGP/SGP4

EPOCH          = 2026-03-08T22:31:29.695296
MEAN_MOTION    = 15.81838832
ECCENTRICITY   = .000333
INCLINATION    = 42.9988
RA_OF_ASC_NODE = 254.1867
ARG_OF_PERICENTER = 245.4626
MEAN_ANOMALY   = 114.5898

EPHEMERIS_TYPE = 0
CLASSIFICATION_TYPE = U
NORAD_CAT_ID   = 67925
ELEMENT_SET_NO = 999
REV_AT_EPOCH   = 355
BSTAR          = -.93902522E-3
MEAN_MOTION_DOT = -.192425E-2
MEAN_MOTION_DDOT = 0

CCSDS_OMM_VERS = 2.0
CREATION_DATE  = 
ORIGINATOR     = 

OBJECT_NAME    = STARLINK-36758
OBJECT_ID      = 2026-036Y
CENTER_NAME    = EARTH
REF_FRAME      = TEME
TIME_SYSTEM    = UTC
MEAN_ELEMENT_THEORY = SGP/SGP4

EPOCH          = 2026-03-09T12:08:35.998080
MEAN_MOTION    = 15.82089976
ECCENTRICITY   = .00019374
INCLINATION    = 42.9989
RA_OF_ASC_NODE = 250.6982
ARG_OF_PERICENTER = 246.8053
MEAN_ANOMALY   = 113.2615

EPHEMERIS_TYPE = 0
CLASSIFICATION_TYPE = U
NORAD_CAT_ID   = 67926
ELEMENT_SET_NO = 999
REV_AT_EPOCH   = 364
BSTAR          = .18098435E-2
MEAN_MOTION_DOT = .400083E-2
MEAN_MOTION_DDOT = 0

CCSDS_OMM_VERS = 2.0
CREATION_DATE  = 
ORIGINATOR     = 

OBJECT_NAME    = STARLINK-36728
OBJECT_ID      = 2026-036Z
CENTER_NAME    = EARTH
REF_FRAME      = TEME
TIME_SYSTEM    = UTC
MEAN_ELEMENT_THEORY = SGP/SGP4

EPOCH          = 2026-03-09T13:37:21.419328
MEAN_MOTION    = 15.81960083
ECCENTRICITY   = .0002783
INCLINATION    = 42.9991
RA_OF_ASC_NODE = 250.2991
ARG_OF_PERICENTER = 276.6932
MEAN_ANOMALY   = 83.3623

EPHEMERIS_TYPE = 0
CLASSIFICATION_TYPE = U
NORAD_CAT_ID   = 67927
ELEMENT_SET_NO = 999
REV_AT_EPOCH   = 365
BSTAR          = .20954274E-2
MEAN_MOTION_DOT = .463966E-2
MEAN_MOTION_DDOT = 0

CCSDS_OMM_VERS = 2.0
CREATION_DATE  = 
ORIGINATOR     = 

OBJECT_NAME    = STARLINK-36771
OBJECT_ID      = 2026-036AA
CENTER_NAME    = EARTH
REF_FRAME      = TEME
TIME_SYSTEM    = UTC
MEAN_ELEMENT_THEORY = SGP/SGP4

EPOCH          = 2026-03-09T13:38:25.896192
MEAN_MOTION    = 15.82124563
ECCENTRICITY   = .00020875
INCLINATION    = 42.9991
RA_OF_ASC_NODE = 250.3044
ARG_OF_PERICENTER = 244.5876
MEAN_ANOMALY   = 115.4780

EPHEMERIS_TYPE = 0
CLASSIFICATION_TYPE = U
NORAD_CAT_ID   = 67928
ELEMENT_SET_NO = 999
REV_AT_EPOCH   = 365
BSTAR          = .14649408E-2
MEAN_MOTION_DOT = .321284E-2
MEAN_MOTION_DDOT = 0

CCSDS_OMM_VERS = 2.0
CREATION_DATE  = 
ORIGINATOR     = 

OBJECT_NAME    = STARLINK-36809
OBJECT_ID      = 2026-036AB
CENTER_NAME    = EARTH
REF_FRAME      = TEME
TIME_SYSTEM    = UTC
MEAN_ELEMENT_THEORY = SGP/SGP4

EPOCH          = 2026-03-09T13:36:16.842240
MEAN_MOTION    = 15.81964343
ECCENTRICITY   = .00032351
INCLINATION    = 42.9991
RA_OF_ASC_NODE = 250.2923
ARG_OF_PERICENTER = 305.0690
MEAN_ANOMALY   = 54.9878

EPHEMERIS_TYPE = 0
CLASSIFICATION_TYPE = U
NORAD_CAT_ID   = 67929
ELEMENT_SET_NO = 999
REV_AT_EPOCH   = 365
BSTAR          = .2134607E-2
MEAN_MOTION_DOT = .47327E-2
MEAN_MOTION_DDOT = 0

CCSDS_OMM_VERS = 2.0
CREATION_DATE  = 
ORIGINATOR     = 

OBJECT_NAME    = STARLINK-36865
OBJECT_ID      = 2026-036AC
CENTER_NAME    = EARTH
REF_FRAME      = TEME
TIME_SYSTEM    = UTC
MEAN_ELEMENT_THEORY = SGP/SGP4

EPOCH          = 2026-03-09T15:05:02.153760
MEAN_MOTION    = 15.82060075
ECCENTRICITY   = .00014358
INCLINATION    = 42.9988
RA_OF_ASC_NODE = 249.8925
ARG_OF_PERICENTER = 250.8436
MEAN_ANOMALY   = 109.2281

EPHEMERIS_TYPE = 0
CLASSIFICATION_TYPE = U
NORAD_CAT_ID   = 67930
ELEMENT_SET_NO = 999
REV_AT_EPOCH   = 366
BSTAR          = .58929871E-3
MEAN_MOTION_DOT = .125625E-2
MEAN_MOTION_DDOT = 0

CCSDS_OMM_VERS = 2.0
CREATION_DATE  = 
ORIGINATOR     = 

OBJECT_NAME    = STARLINK-36781
OBJECT_ID      = 2026-036AD
CENTER_NAME    = EARTH
REF_FRAME      = TEME
TIME_SYSTEM    = UTC
MEAN_ELEMENT_THEORY = SGP/SGP4

EPOCH          = 2026-03-09T15:06:06.287616
MEAN_MOTION    = 15.82090420
ECCENTRICITY   = .0001289
INCLINATION    = 42.9992
RA_OF_ASC_NODE = 249.8998
ARG_OF_PERICENTER = 193.2563
MEAN_ANOMALY   = 166.8276

EPHEMERIS_TYPE = 0
CLASSIFICATION_TYPE = U
NORAD_CAT_ID   = 67931
ELEMENT_SET_NO = 999
REV_AT_EPOCH   = 366
BSTAR          = .90531118E-3
MEAN_MOTION_DOT = .195125E-2
MEAN_MOTION_DDOT = 0

CCSDS_OMM_VERS = 2.0
CREATION_DATE  = 
ORIGINATOR     = 

OBJECT_NAME    = STARLINK-36301
OBJECT_ID      = 2026-037A
CENTER_NAME    = EARTH
REF_FRAME      = TEME
TIME_SYSTEM    = UTC
MEAN_ELEMENT_THEORY = SGP/SGP4

EPOCH          = 2026-03-09T14:00:01.999872
MEAN_MOTION    = 15.82009053
ECCENTRICITY   = .00015504
INCLINATION    = 43.0005
RA_OF_ASC_NODE = 199.2319
ARG_OF_PERICENTER = 279.0880
MEAN_ANOMALY   = 106.1136

EPHEMERIS_TYPE = 0
CLASSIFICATION_TYPE = U
NORAD_CAT_ID   = 67932
ELEMENT_SET_NO = 999
REV_AT_EPOCH   = 309
BSTAR          = .17849487E-3
MEAN_MOTION_DOT = .372E-3
MEAN_MOTION_DDOT = 0

CCSDS_OMM_VERS = 2.0
CREATION_DATE  = 
ORIGINATOR     = 

OBJECT_NAME    = STARLINK-36852
OBJECT_ID      = 2026-037B
CENTER_NAME    = EARTH
REF_FRAME      = TEME
TIME_SYSTEM    = UTC
MEAN_ELEMENT_THEORY = SGP/SGP4

EPOCH          = 2026-03-09T14:00:01.999872
MEAN_MOTION    = 15.81992690
ECCENTRICITY   = .00014795
INCLINATION    = 42.9986
RA_OF_ASC_NODE = 199.2215
ARG_OF_PERICENTER = 259.3336
MEAN_ANOMALY   = 130.1689

EPHEMERIS_TYPE = 0
CLASSIFICATION_TYPE = U
NORAD_CAT_ID   = 67933
ELEMENT_SET_NO = 999
REV_AT_EPOCH   = 318
BSTAR          = .16785608E-3
MEAN_MOTION_DOT = .34915E-3
MEAN_MOTION_DDOT = 0

CCSDS_OMM_VERS = 2.0
CREATION_DATE  = 
ORIGINATOR     = 

OBJECT_NAME    = STARLINK-36861
OBJECT_ID      = 2026-037C
CENTER_NAME    = EARTH
REF_FRAME      = TEME
TIME_SYSTEM    = UTC
MEAN_ELEMENT_THEORY = SGP/SGP4

EPOCH          = 2026-03-09T14:00:01.999872
MEAN_MOTION    = 15.82026891
ECCENTRICITY   = .00015058
INCLINATION    = 42.9985
RA_OF_ASC_NODE = 199.2109
ARG_OF_PERICENTER = 251.5106
MEAN_ANOMALY   = 142.2367

EPHEMERIS_TYPE = 0
CLASSIFICATION_TYPE = U
NORAD_CAT_ID   = 67934
ELEMENT_SET_NO = 999
REV_AT_EPOCH   = 318
BSTAR          = .86533458E-4
MEAN_MOTION_DOT = .17734E-3
MEAN_MOTION_DDOT = 0

CCSDS_OMM_VERS = 2.0
CREATION_DATE  = 
ORIGINATOR     = 

OBJECT_NAME    = STARLINK-36860
OBJECT_ID      = 2026-037D
CENTER_NAME    = EARTH
REF_FRAME      = TEME
TIME_SYSTEM    = UTC
MEAN_ELEMENT_THEORY = SGP/SGP4

EPOCH          = 2026-03-09T14:00:01.999872
MEAN_MOTION    = 15.82045099
ECCENTRICITY   = .00013678
INCLINATION    = 42.9983
RA_OF_ASC_NODE = 199.2002
ARG_OF_PERICENTER = 281.8171
MEAN_ANOMALY   = 116.2097

EPHEMERIS_TYPE = 0
CLASSIFICATION_TYPE = U
NORAD_CAT_ID   = 67935
ELEMENT_SET_NO = 999
REV_AT_EPOCH   = 318
BSTAR          = -.1301966E-3
MEAN_MOTION_DOT = -.27896E-3
MEAN_MOTION_DDOT = 0

CCSDS_OMM_VERS = 2.0
CREATION_DATE  = 
ORIGINATOR     = 

OBJECT_NAME    = STARLINK-36848
OBJECT_ID      = 2026-037E
CENTER_NAME    = EARTH
REF_FRAME      = TEME
TIME_SYSTEM    = UTC
MEAN_ELEMENT_THEORY = SGP/SGP4

EPOCH          = 2026-03-09T14:00:01.999872
MEAN_MOTION    = 15.82015144
ECCENTRICITY   = .00016472
INCLINATION    = 42.9984
RA_OF_ASC_NODE = 199.1781
ARG_OF_PERICENTER = 264.6141
MEAN_ANOMALY   = 141.9786

EPHEMERIS_TYPE = 0
CLASSIFICATION_TYPE = U
NORAD_CAT_ID   = 67936
ELEMENT_SET_NO = 999
REV_AT_EPOCH   = 318
BSTAR          = -.19242805E-4
MEAN_MOTION_DOT = -.4583E-4
MEAN_MOTION_DDOT = 0

